ONEWEB-0332             
1 49279U 21090A   24036.72802076 -.00000168  00000+0 -48764-3 0  9998
2 49279  87.8945 101.3977 0002387  96.0946 264.0455 13.14501009114271
ONEWEB-0347             
1 49280U 21090B   24036.62938416  .00000067  00000+0  13315-3 0  9997
2 49280  87.9152  86.1355 0002443  99.5882 260.5527 13.20771496117184
ONEWEB-0349             
1 49281U 21090C   24036.66093690  .00000017  00000+0  10733-4 0  9995
2 49281  87.9152  86.1268 0001583  95.5538 264.5776 13.20769635115973
ONEWEB-0353             
1 49282U 21090D   24036.72008331  .00000089  00000+0  20645-3 0  9992
2 49282  87.8948 101.3825 0002189 101.6040 258.5336 13.14502317114277
ONEWEB-0356             
1 49283U 21090E   24036.65936765  .00000035  00000+0  53405-4 0  9998
2 49283  87.9153  86.1232 0001982 127.9284 232.2029 13.20771215115978
ONEWEB-0358             
1 49284U 21090F   24036.61358749 -.00000125  00000+0 -34014-3 0  9991
2 49284  87.9153  86.1174 0001641 105.5140 254.6174 13.20769992116697
ONEWEB-0359             
1 49285U 21090G   24036.68619839  .00000094  00000+0  19831-3 0  9992
2 49285  87.9150  86.1233 0001439  87.9482 272.1816 13.20771368116685
ONEWEB-0360             
1 49286U 21090H   24036.67671991  .00000045  00000+0  78106-4 0  9996
2 49286  87.9152  86.1291 0001832  98.1225 262.0117 13.20769273115995
